SL-16 R/B               
1 22566U 93016B   25343.45395658 -.00000146  00000+0 -50617-4 0  9997
2 22566  71.0087  44.7051 0007840 103.9219 256.2776 14.15287344689402
COSMOS 2242             
1 22626U 93024A   25343.75981240  .00003502  00000+0  30881-3 0  9991
2 22626  82.5188 352.6929 0014831 245.2011 114.7669 14.96087343766941
SL-16 R/B               
1 22803U 93059B   25343.55593537  .00000062  00000+0  54235-4 0  9990
2 22803  70.9896 201.2000 0017808 340.1398  19.9030 14.17213552666767
ARIANE 40 R/B           
1 22830U 93061H   25343.47575597  .00000535  00000+0  21192-3 0  9990
2 22830  98.5080  49.0651 0010686 185.5698 174.5369 14.32798567681186
COSMOS 2278             
1 23087U 94023A   25343.77762125 -.00000119  00000+0 -37702-4 0  9997
2 23087  71.0545   3.2085 0008468 184.4647 175.6402 14.14351092632097
SL-16 R/B               
1 23088U 94023B   25343.51166304  .00000201  00000+0  12818-3 0  9997
2 23088  71.0010 260.2644 0001207  40.0639 320.0573 14.15002139633332
SL-16 R/B               
1 23343U 94074B   25343.85494602  .00000901  00000+0  12770-3 0  9993
2 23343  97.7203  13.2740 0007356 144.0216  29.0672 14.79285060673960
SL-16 R/B               
1 23405U 94077B   25343.81109345  .00000271  00000+0  16305-3 0  9996
2 23405  70.9812 181.5750 0004602 286.2063  73.8553 14.15547869603515
ARIANE 40+ R/B          
1 23561U 95021B   25343.69837708  .00000599  00000+0  20518-3 0  9990
2 23561  98.4654  51.3238 0007599  58.0090 105.5158 14.39692284606295
SL-16 R/B               
1 23705U 95058B   25343.81363801  .00000199  00000+0  12610-3 0  9992
2 23705  71.0225   8.9478 0014944 258.9446 100.9997 14.15483076555135
ORBVIEW 2 (SEASTAR)     
1 24883U 97037A   25343.70883314  .00000604  00000+0  22657-3 0  9996
2 24883  98.8456 140.7070 0001797 351.9506   8.1650 14.35413951495564
