CCSDS_OMM_VERS = 2.0
CREATION_DATE  = 
ORIGINATOR     = 

OBJECT_NAME    = SL-16 R/B
OBJECT_ID      = 1993-016B
CENTER_NAME    = EARTH
REF_FRAME      = TEME
TIME_SYSTEM    = UTC
MEAN_ELEMENT_THEORY = SGP/SGP4

EPOCH          = 2025-12-09T10:53:41.848512
MEAN_MOTION    = 14.15287344
ECCENTRICITY   = .00078402
INCLINATION    = 71.0087
RA_OF_ASC_NODE = 44.7051
ARG_OF_PERICENTER = 103.9219
MEAN_ANOMALY   = 256.2776

EPHEMERIS_TYPE = 0
CLASSIFICATION_TYPE = U
NORAD_CAT_ID   = 22566
ELEMENT_SET_NO = 999
REV_AT_EPOCH   = 68940
BSTAR          = -.50616606E-4
MEAN_MOTION_DOT = -.146E-5
MEAN_MOTION_DDOT = 0

CCSDS_OMM_VERS = 2.0
CREATION_DATE  = 
ORIGINATOR     = 

OBJECT_NAME    = COSMOS 2242
OBJECT_ID      = 1993-024A
CENTER_NAME    = EARTH
REF_FRAME      = TEME
TIME_SYSTEM    = UTC
MEAN_ELEMENT_THEORY = SGP/SGP4

EPOCH          = 2025-12-09T18:14:07.791360
MEAN_MOTION    = 14.96087343
ECCENTRICITY   = .0014831
INCLINATION    = 82.5188
RA_OF_ASC_NODE = 352.6929
ARG_OF_PERICENTER = 245.2011
MEAN_ANOMALY   = 114.7669

EPHEMERIS_TYPE = 0
CLASSIFICATION_TYPE = U
NORAD_CAT_ID   = 22626
ELEMENT_SET_NO = 999
REV_AT_EPOCH   = 76694
BSTAR          = .30881E-3
MEAN_MOTION_DOT = .3502E-4
MEAN_MOTION_DDOT = 0

CCSDS_OMM_VERS = 2.0
CREATION_DATE  = 
ORIGINATOR     = 

OBJECT_NAME    = SL-16 R/B
OBJECT_ID      = 1993-059B
CENTER_NAME    = EARTH
REF_FRAME      = TEME
TIME_SYSTEM    = UTC
MEAN_ELEMENT_THEORY = SGP/SGP4

EPOCH          = 2025-12-09T13:20:32.815968
MEAN_MOTION    = 14.17213552
ECCENTRICITY   = .0017808
INCLINATION    = 70.9896
RA_OF_ASC_NODE = 201.2000
ARG_OF_PERICENTER = 340.1398
MEAN_ANOMALY   = 19.9030

EPHEMERIS_TYPE = 0
CLASSIFICATION_TYPE = U
NORAD_CAT_ID   = 22803
ELEMENT_SET_NO = 999
REV_AT_EPOCH   = 66676
BSTAR          = .54235E-4
MEAN_MOTION_DOT = .62E-6
MEAN_MOTION_DDOT = 0

CCSDS_OMM_VERS = 2.0
CREATION_DATE  = 
ORIGINATOR     = 

OBJECT_NAME    = ARIANE 40 R/B
OBJECT_ID      = 1993-061H
CENTER_NAME    = EARTH
REF_FRAME      = TEME
TIME_SYSTEM    = UTC
MEAN_ELEMENT_THEORY = SGP/SGP4

EPOCH          = 2025-12-09T11:25:05.315808
MEAN_MOTION    = 14.32798567
ECCENTRICITY   = .00106866
INCLINATION    = 98.5080
RA_OF_ASC_NODE = 49.0651
ARG_OF_PERICENTER = 185.5698
MEAN_ANOMALY   = 174.5369

EPHEMERIS_TYPE = 0
CLASSIFICATION_TYPE = U
NORAD_CAT_ID   = 22830
ELEMENT_SET_NO = 999
REV_AT_EPOCH   = 68118
BSTAR          = .2119187E-3
MEAN_MOTION_DOT = .535E-5
MEAN_MOTION_DDOT = 0

CCSDS_OMM_VERS = 2.0
CREATION_DATE  = 
ORIGINATOR     = 

OBJECT_NAME    = COSMOS 2278
OBJECT_ID      = 1994-023A
CENTER_NAME    = EARTH
REF_FRAME      = TEME
TIME_SYSTEM    = UTC
MEAN_ELEMENT_THEORY = SGP/SGP4

EPOCH          = 2025-12-09T18:39:46.476000
MEAN_MOTION    = 14.14351092
ECCENTRICITY   = .0008468
INCLINATION    = 71.0545
RA_OF_ASC_NODE = 3.2085
ARG_OF_PERICENTER = 184.4647
MEAN_ANOMALY   = 175.6402

EPHEMERIS_TYPE = 0
CLASSIFICATION_TYPE = U
NORAD_CAT_ID   = 23087
ELEMENT_SET_NO = 999
REV_AT_EPOCH   = 63209
BSTAR          = -.37702E-4
MEAN_MOTION_DOT = -.119E-5
MEAN_MOTION_DDOT = 0

CCSDS_OMM_VERS = 2.0
CREATION_DATE  = 
ORIGINATOR     = 

OBJECT_NAME    = SL-16 R/B
OBJECT_ID      = 1994-023B
CENTER_NAME    = EARTH
REF_FRAME      = TEME
TIME_SYSTEM    = UTC
MEAN_ELEMENT_THEORY = SGP/SGP4

EPOCH          = 2025-12-09T12:16:47.686656
MEAN_MOTION    = 14.15002139
ECCENTRICITY   = .0001207
INCLINATION    = 71.0010
RA_OF_ASC_NODE = 260.2644
ARG_OF_PERICENTER = 40.0639
MEAN_ANOMALY   = 320.0573

EPHEMERIS_TYPE = 0
CLASSIFICATION_TYPE = U
NORAD_CAT_ID   = 23088
ELEMENT_SET_NO = 999
REV_AT_EPOCH   = 63333
BSTAR          = .12818E-3
MEAN_MOTION_DOT = .201E-5
MEAN_MOTION_DDOT = 0

CCSDS_OMM_VERS = 2.0
CREATION_DATE  = 
ORIGINATOR     = 

OBJECT_NAME    = SL-16 R/B
OBJECT_ID      = 1994-074B
CENTER_NAME    = EARTH
REF_FRAME      = TEME
TIME_SYSTEM    = UTC
MEAN_ELEMENT_THEORY = SGP/SGP4

EPOCH          = 2025-12-09T20:31:07.336128
MEAN_MOTION    = 14.79285060
ECCENTRICITY   = .0007356
INCLINATION    = 97.7203
RA_OF_ASC_NODE = 13.2740
ARG_OF_PERICENTER = 144.0216
MEAN_ANOMALY   = 29.0672

EPHEMERIS_TYPE = 0
CLASSIFICATION_TYPE = U
NORAD_CAT_ID   = 23343
ELEMENT_SET_NO = 999
REV_AT_EPOCH   = 67396
BSTAR          = .1277E-3
MEAN_MOTION_DOT = .901E-5
MEAN_MOTION_DDOT = 0

CCSDS_OMM_VERS = 2.0
CREATION_DATE  = 
ORIGINATOR     = 

OBJECT_NAME    = SL-16 R/B
OBJECT_ID      = 1994-077B
CENTER_NAME    = EARTH
REF_FRAME      = TEME
TIME_SYSTEM    = UTC
MEAN_ELEMENT_THEORY = SGP/SGP4

EPOCH          = 2025-12-09T19:27:58.474080
MEAN_MOTION    = 14.15547869
ECCENTRICITY   = .0004602
INCLINATION    = 70.9812
RA_OF_ASC_NODE = 181.5750
ARG_OF_PERICENTER = 286.2063
MEAN_ANOMALY   = 73.8553

EPHEMERIS_TYPE = 0
CLASSIFICATION_TYPE = U
NORAD_CAT_ID   = 23405
ELEMENT_SET_NO = 999
REV_AT_EPOCH   = 60351
BSTAR          = .16305E-3
MEAN_MOTION_DOT = .271E-5
MEAN_MOTION_DDOT = 0

CCSDS_OMM_VERS = 2.0
CREATION_DATE  = 
ORIGINATOR     = 

OBJECT_NAME    = ARIANE 40+ R/B
OBJECT_ID      = 1995-021B
CENTER_NAME    = EARTH
REF_FRAME      = TEME
TIME_SYSTEM    = UTC
MEAN_ELEMENT_THEORY = SGP/SGP4

EPOCH          = 2025-12-09T16:45:39.779712
MEAN_MOTION    = 14.39692284
ECCENTRICITY   = .0007599
INCLINATION    = 98.4654
RA_OF_ASC_NODE = 51.3238
ARG_OF_PERICENTER = 58.0090
MEAN_ANOMALY   = 105.5158

EPHEMERIS_TYPE = 0
CLASSIFICATION_TYPE = U
NORAD_CAT_ID   = 23561
ELEMENT_SET_NO = 999
REV_AT_EPOCH   = 60629
BSTAR          = .20518E-3
MEAN_MOTION_DOT = .599E-5
MEAN_MOTION_DDOT = 0

CCSDS_OMM_VERS = 2.0
CREATION_DATE  = 
ORIGINATOR     = 

OBJECT_NAME    = SL-16 R/B
OBJECT_ID      = 1995-058B
CENTER_NAME    = EARTH
REF_FRAME      = TEME
TIME_SYSTEM    = UTC
MEAN_ELEMENT_THEORY = SGP/SGP4

EPOCH          = 2025-12-09T19:31:38.324064
MEAN_MOTION    = 14.15483076
ECCENTRICITY   = .0014944
INCLINATION    = 71.0225
RA_OF_ASC_NODE = 8.9478
ARG_OF_PERICENTER = 258.9446
MEAN_ANOMALY   = 100.9997

EPHEMERIS_TYPE = 0
CLASSIFICATION_TYPE = U
NORAD_CAT_ID   = 23705
ELEMENT_SET_NO = 999
REV_AT_EPOCH   = 55513
BSTAR          = .1261E-3
MEAN_MOTION_DOT = .199E-5
MEAN_MOTION_DDOT = 0

CCSDS_OMM_VERS = 2.0
CREATION_DATE  = 
ORIGINATOR     = 

OBJECT_NAME    = ORBVIEW 2 (SEASTAR)
OBJECT_ID      = 1997-037A
CENTER_NAME    = EARTH
REF_FRAME      = TEME
TIME_SYSTEM    = UTC
MEAN_ELEMENT_THEORY = SGP/SGP4

EPOCH          = 2025-12-09T17:00:43.183296
MEAN_MOTION    = 14.35413951
ECCENTRICITY   = .0001797
INCLINATION    = 98.8456
RA_OF_ASC_NODE = 140.7070
ARG_OF_PERICENTER = 351.9506
MEAN_ANOMALY   = 8.1650

EPHEMERIS_TYPE = 0
CLASSIFICATION_TYPE = U
NORAD_CAT_ID   = 24883
ELEMENT_SET_NO = 999
REV_AT_EPOCH   = 49556
BSTAR          = .22657E-3
MEAN_MOTION_DOT = .604E-5
MEAN_MOTION_DDOT = 0

